OBJECT_NAME,OBJECT_ID,EPOCH,MEAN_MOTION,ECCENTRICITY,INCLINATION,RA_OF_ASC_NODE,ARG_OF_PERICENTER,MEAN_ANOMALY,EPHEMERIS_TYPE,CLASSIFICATION_TYPE,NORAD_CAT_ID,ELEMENT_SET_NO,REV_AT_EPOCH,BSTAR,MEAN_MOTION_DOT,MEAN_MOTION_DDOT
KUZGTU 1 (RS47S),2023-091AV,2026-06-26T06:08:41.559648,15.30058318,.00119211,97.5067,241.8287,69.8459,290.4063,0,U,57217,999,16576,.51135116E-3,.14843E-3,0
SONATE-2,2024-043Q,2026-06-25T22:21:42.223680,15.59349146,.0007325,97.5531,327.8683,166.8860,193.2588,0,U,59112,999,12925,.53656712E-3,.42373E-3,0
MESAT1,2024-125G,2026-06-26T01:34:39.732960,15.64156424,.00103981,97.2281,34.7560,172.6830,187.4583,0,U,60209,999,11095,.69532325E-3,.66416E-3,0
OOV-CUBE (TUBSAT-30),2024-128F,2026-06-26T05:42:23.198400,15.02803677,.00435048,61.9924,194.0128,135.7884,224.6697,0,U,60240,999,10747,.1370361E-3,.1664E-4,0
COLIBRI-S (RS67S),2024-199M,2026-06-26T05:47:58.502976,15.48079852,.00065936,97.2988,51.1801,234.2740,125.7897,0,U,61746,999,13881,.45450422E-3,.23783E-3,0
HORS 3 (RS81S),2024-199U,2026-06-26T05:25:17.661504,15.55579963,.00043644,97.2973,53.2499,226.1164,133.9730,0,U,61753,999,13896,.58470013E-3,.40092E-3,0
HORS 4 (RS82S),2024-199V,2026-06-26T05:20:49.659936,15.60512895,.00043198,97.2917,54.5077,210.7761,149.3243,0,U,61754,999,13905,.63249536E-3,.52251E-3,0
SIT-2086,2024-199AF,2026-06-26T06:42:31.253760,15.53693675,.00056808,97.2932,53.7496,208.9203,151.1737,0,U,61764,999,13584,.6198004E-3,.39689E-3,0
HYPERVIEW 1G (RS66S),2024-199AP,2026-06-26T06:19:28.169472,15.78400500,.00058968,97.2856,57.4568,188.0384,172.0790,0,U,61772,999,13610,.99402781E-3,.174225E-2,0
ALTAIR (RS65S),2024-199AW,2026-06-26T05:25:30.125568,15.37183702,.00107574,97.3026,46.5179,273.2505,86.7508,0,U,61779,999,13850,.33557291E-3,.12164E-3,0
ASRTU-1 (AO-123),2024-199AY,2026-06-26T06:53:24.505152,15.35798010,.00118983,97.2997,45.8763,276.6763,83.3127,0,U,61781,999,13532,.23281265E-3,.8046E-4,0
SAMSAT-IONOSPHERE (RS75S),2024-199BB,2026-06-26T05:51:27.278208,15.58402384,.00065722,97.2938,53.3487,231.2129,128.8541,0,U,61784,999,13897,.64408202E-3,.49133E-3,0
RTU MIREA 1 (RS51S),2024-199BC,2026-06-26T05:56:59.025696,15.62059235,.00064985,97.2925,54.2321,222.9388,137.1363,0,U,61785,999,13588,.72042425E-3,.63289E-3,0
TEVEL2-4,2025-052D,2026-06-26T04:18:48.124224,15.34912394,.00049227,97.3903,73.5873,86.7303,273.4503,0,U,63213,999,7149,.63245947E-3,.21376E-3,0
TEVEL2-5,2025-052E,2026-06-25T16:18:41.230368,15.34714855,.00048604,97.3899,73.0315,88.8974,271.2826,0,U,63214,999,7141,.69414093E-3,.23328E-3,0
TEVEL2-6,2025-052F,2026-06-26T05:07:50.873664,15.34701265,.00046805,97.3902,73.5508,88.4049,271.7731,0,U,63215,999,7149,.62822602E-3,.21089E-3,0
TEVEL2-1,2025-052H,2026-06-26T05:54:12.402432,15.34157117,.00050007,97.3872,73.1969,96.2961,263.8851,0,U,63217,999,7148,.62319366E-3,.20561E-3,0
TEVEL2-3,2025-052J,2026-06-25T15:40:43.655520,15.34191056,.0004883,97.3880,72.6267,97.7388,262.4409,0,U,63218,999,7139,.68881177E-3,.22765E-3,0
TEVEL2-2,2025-052K,2026-06-25T15:49:16.133664,15.34142651,.00050331,97.3872,72.6125,97.8047,262.3767,0,U,63219,999,7139,.68291107E-3,.22535E-3,0
TEVEL2-9,2025-052AD,2026-06-26T05:39:00.556704,15.32162878,.00082819,97.3935,72.5449,106.5161,253.6991,0,U,63237,999,7141,.6023405E-3,.1867E-3,0
TEVEL2-7,2025-052AE,2026-06-26T00:24:11.339424,15.31851265,.00083752,97.3939,72.2388,107.4049,252.8109,0,U,63238,999,7137,.6036768E-3,.18531E-3,0
TEVEL2-8,2025-052AF,2026-06-26T05:18:23.535936,15.31844407,.00083849,97.3937,72.4192,107.6731,252.5427,0,U,63239,999,7140,.58597488E-3,.1798E-3,0
INNOSAT 16 (RS92S7),2025-155C,2026-06-26T06:01:15.619872,15.25546387,.00116012,97.4561,144.3499,145.5632,214.6360,0,U,64878,999,8205,.25411814E-3,.6384E-4,0
GEOSCAN 6 (RS92S6),2025-155D,2026-06-26T04:56:10.399488,15.30309959,.00093365,97.4552,145.7930,135.2138,224.9857,0,U,64879,999,8214,.38901411E-3,.11348E-3,0
GEOSCAN 1 (RS92S1),2025-155E,2026-06-26T04:54:35.438976,15.30923357,.00092991,97.4548,145.9478,135.1419,225.0575,0,U,64880,999,8215,.4403343E-3,.13104E-3,0
239ALFEROV (RS61S),2025-155F,2026-06-26T05:26:05.813952,15.33170012,.00090318,97.4549,146.5619,133.0706,227.1293,0,U,64881,999,8219,.49580527E-3,.15844E-3,0
GEOSCAN 2 (RS92S2),2025-155Q,2026-06-26T04:43:12.061632,15.31190139,.00089482,97.4548,146.0958,123.7403,236.4692,0,U,64890,999,8216,.39829692E-3,.11942E-3,0
GEOSCAN 5 (RS92S5),2025-155R,2026-06-26T05:07:36.266880,15.33485973,.00078686,97.4541,146.6899,136.6013,223.5851,0,U,64891,999,8220,.49033635E-3,.1582E-3,0
GEOSCAN 4 (RS92S4),2025-155S,2026-06-26T04:43:31.354752,15.33643249,.00078832,97.4545,146.7239,136.0183,224.1688,0,U,64892,999,8220,.5085412E-3,.16494E-3,0
GEOSCAN 3 (RS92S3),2025-155T,2026-06-26T06:01:29.556192,15.35683870,.00078986,97.4533,147.2347,135.3253,224.8628,0,U,64893,999,8224,.55908656E-3,.19363E-3,0
