KUZGTU 1 (RS47S)        
1 57217U 23091AV  26177.25603657  .00014843  00000+0  51135-3 0  9991
2 57217  97.5067 241.8287 0011921  69.8459 290.4063 15.30058318165768
SONATE-2                
1 59112U 24043Q   26176.93173870  .00042373  00000+0  53657-3 0  9998
2 59112  97.5531 327.8683 0007325 166.8860 193.2588 15.59349146129251
MESAT1                  
1 60209U 24125G   26177.06573765  .00066416  00000+0  69532-3 0  9993
2 60209  97.2281  34.7560 0010398 172.6830 187.4583 15.64156424110951
OOV-CUBE (TUBSAT-30)    
1 60240U 24128F   26177.23776850  .00001664  00000+0  13704-3 0  9994
2 60240  61.9924 194.0128 0043504 135.7884 224.6697 15.02803677107476
COLIBRI-S (RS67S)       
1 61746U 24199M   26177.24164934  .00023783  00000+0  45450-3 0  9998
2 61746  97.2988  51.1801 0006593 234.2740 125.7897 15.48079852138819
HORS 3 (RS81S)          
1 61753U 24199U   26177.22589886  .00040092  00000+0  58470-3 0  9999
2 61753  97.2973  53.2499 0004364 226.1164 133.9730 15.55579963138960
HORS 4 (RS82S)          
1 61754U 24199V   26177.22279699  .00052251  00000+0  63250-3 0  9990
2 61754  97.2917  54.5077 0004319 210.7761 149.3243 15.60512895139055
SIT-2086                
1 61764U 24199AF  26177.27952840  .00039689  00000+0  61980-3 0  9990
2 61764  97.2932  53.7496 0005680 208.9203 151.1737 15.53693675135841
HYPERVIEW 1G (RS66S)    
1 61772U 24199AP  26177.26352048  .00174225  00000+0  99403-3 0  9999
2 61772  97.2856  57.4568 0005896 188.0384 172.0790 15.78400500136104
ALTAIR (RS65S)          
1 61779U 24199AW  26177.22604312  .00012164  00000+0  33557-3 0  9997
2 61779  97.3026  46.5179 0010757 273.2505  86.7508 15.37183702138503
ASRTU-1 (AO-123)        
1 61781U 24199AY  26177.28708918  .00008046  00000+0  23281-3 0  9990
2 61781  97.2997  45.8763 0011898 276.6763  83.3127 15.35798010135322
SAMSAT-IONOSPHERE (RS7*)
1 61784U 24199BB  26177.24406572  .00049133  00000+0  64408-3 0  9998
2 61784  97.2938  53.3487 0006572 231.2129 128.8541 15.58402384138973
RTU MIREA 1 (RS51S)     
1 61785U 24199BC  26177.24790539  .00063289  00000+0  72042-3 0  9999
2 61785  97.2925  54.2321 0006498 222.9388 137.1363 15.62059235135888
TEVEL2-4                
1 63213U 25052D   26177.17972366  .00021376  00000+0  63246-3 0  9995
2 63213  97.3903  73.5873 0004922  86.7303 273.4503 15.34912394 71491
TEVEL2-5                
1 63214U 25052E   26176.67964387  .00023328  00000+0  69414-3 0  9996
2 63214  97.3899  73.0315 0004860  88.8974 271.2826 15.34714855 71418
TEVEL2-6                
1 63215U 25052F   26177.21378326  .00021089  00000+0  62823-3 0  9999
2 63215  97.3902  73.5508 0004680  88.4049 271.7731 15.34701265 71491
TEVEL2-1                
1 63217U 25052H   26177.24597688  .00020561  00000+0  62319-3 0  9992
2 63217  97.3872  73.1969 0005000  96.2961 263.8851 15.34157117 71488
TEVEL2-3                
1 63218U 25052J   26176.65328305  .00022765  00000+0  68881-3 0  9993
2 63218  97.3880  72.6267 0004883  97.7388 262.4409 15.34191056 71394
TEVEL2-2                
1 63219U 25052K   26176.65921451  .00022535  00000+0  68291-3 0  9995
2 63219  97.3872  72.6125 0005033  97.8047 262.3767 15.34142651 71393
TEVEL2-9                
1 63237U 25052AD  26177.23542311  .00018670  00000+0  60234-3 0  9998
2 63237  97.3935  72.5449 0008281 106.5161 253.6991 15.32162878 71410
TEVEL2-7                
1 63238U 25052AE  26177.01679791  .00018531  00000+0  60368-3 0  9992
2 63238  97.3939  72.2388 0008375 107.4049 252.8109 15.31851265 71374
TEVEL2-8                
1 63239U 25052AF  26177.22110574  .00017980  00000+0  58597-3 0  9993
2 63239  97.3937  72.4192 0008384 107.6731 252.5427 15.31844407 71402
INNOSAT 16 (RS92S7)     
1 64878U 25155C   26177.25087523  .00006384  00000+0  25412-3 0  9993
2 64878  97.4561 144.3499 0011601 145.5632 214.6360 15.25546387 82059
GEOSCAN 6 (RS92S6)      
1 64879U 25155D   26177.20567592  .00011348  00000+0  38901-3 0  9991
2 64879  97.4552 145.7930 0009336 135.2138 224.9857 15.30309959 82147
GEOSCAN 1 (RS92S1)      
1 64880U 25155E   26177.20457684  .00013104  00000+0  44033-3 0  9998
2 64880  97.4548 145.9478 0009299 135.1419 225.0575 15.30923357 82156
239ALFEROV (RS61S)      
1 64881U 25155F   26177.22645618  .00015844  00000+0  49581-3 0  9993
2 64881  97.4549 146.5619 0009031 133.0706 227.1293 15.33170012 82191
GEOSCAN 2 (RS92S2)      
1 64890U 25155Q   26177.19666738  .00011942  00000+0  39830-3 0  9996
2 64890  97.4548 146.0958 0008948 123.7403 236.4692 15.31190139 82160
GEOSCAN 5 (RS92S5)      
1 64891U 25155R   26177.21361420  .00015820  00000+0  49034-3 0  9996
2 64891  97.4541 146.6899 0007868 136.6013 223.5851 15.33485973 82208
GEOSCAN 4 (RS92S4)      
1 64892U 25155S   26177.19689068  .00016494  00000+0  50854-3 0  9995
2 64892  97.4545 146.7239 0007883 136.0183 224.1688 15.33643249 82208
GEOSCAN 3 (RS92S3)      
1 64893U 25155T   26177.25103653  .00019363  00000+0  55909-3 0  9998
2 64893  97.4533 147.2347 0007898 135.3253 224.8628 15.35683870 82249
